[
    {
        "name": "Afghanistan",
        "dial_code": "+93",
        "code": "AF"
    },
    {
        "name": "Argentina",
        "dial_code": "+54",
        "code": "AR"
    },
    {
        "name": "Bolivia",
        "dial_code": "+591",
        "code": "BO"
    },
    {
        "name": "Brazil",
        "dial_code": "+55",
        "code": "BR"
    },
    {
        "name": "Chile",
        "dial_code": "+56",
        "code": "CL"
    },
    {
        "name": "Colombia",
        "dial_code": "+57",
        "code": "CO"
    },
    {
        "name": "Costa Rica",
        "dial_code": "+506",
        "code": "CR"
    },
    {
        "name": "Cuba",
        "dial_code": "+53",
        "code": "CU"
    },
    {
        "name": "Dominican Republic",
        "dial_code": "+1-809",
        "code": "DO"
    },
    {
        "name": "Ecuador",
        "dial_code": "+593",
        "code": "EC"
    },
    {
        "name": "El Salvador",
        "dial_code": "+503",
        "code": "SV"
    },
    {
        "name": "Guatemala",
        "dial_code": "+502",
        "code": "GT"
    },
    {
        "name": "Honduras",
        "dial_code": "+504",
        "code": "HN"
    },
    {
        "name": "Mexico",
        "dial_code": "+52",
        "code": "MX"
    },
    {
        "name": "Nicaragua",
        "dial_code": "+505",
        "code": "NI"
    },
    {
        "name": "Panama",
        "dial_code": "+507",
        "code": "PA"
    },
    {
        "name": "Paraguay",
        "dial_code": "+595",
        "code": "PY"
    },
    {
        "name": "Peru",
        "dial_code": "+51",
        "code": "PE"
    },
    {
        "name": "Spain",
        "dial_code": "+34",
        "code": "ES"
    },
    {
        "name": "United States",
        "dial_code": "+1",
        "code": "US"
    },
    {
        "name": "Uruguay",
        "dial_code": "+598",
        "code": "UY"
    },
    {
        "name": "Venezuela",
        "dial_code": "+58",
        "code": "VE"
    }
]